STARLINK-31848          
1 59784U 24093C   26068.41481086 -.00000441  00000+0 -64959-5 0  9993
2 59784  43.0002 206.9663 0001099 289.2615  70.8118 15.27561249102693
STARLINK-36554          
1 67502U 26012K   26067.71268370  .00032833  00000+0  11969-2 0  9992
2 67502  42.9934 319.8184 0000695 339.2059  20.8765 15.27591469  7619
